[{"OBJECT_NAME":"SMDC ONE 1.2","OBJECT_ID":"2012-048B","EPOCH":"2026-03-09T14:14:46.220928","MEAN_MOTION":15.19069434,"ECCENTRICITY":0.0110458,"INCLINATION":64.6579,"RA_OF_ASC_NODE":143.2061,"ARG_OF_PERICENTER":207.1808,"MEAN_ANOMALY":152.3511,"EPHEMERIS_TYPE":0,"CLASSIFICATION_TYPE":"U","NORAD_CAT_ID":38759,"ELEMENT_SET_NO":999,"REV_AT_EPOCH":10101,"BSTAR":0.00057078,"MEAN_MOTION_DOT":0.00013943,"MEAN_MOTION_DDOT":0},{"OBJECT_NAME":"STARLINK-34574","OBJECT_ID":"2025-142U","EPOCH":"2026-03-09T22:03:05.398272","MEAN_MOTION":14.98338304,"ECCENTRICITY":0.00023816,"INCLINATION":70.0008,"RA_OF_ASC_NODE":313.9339,"ARG_OF_PERICENTER":255.583,"MEAN_ANOMALY":104.5065,"EPHEMERIS_TYPE":0,"CLASSIFICATION_TYPE":"U","NORAD_CAT_ID":64714,"ELEMENT_SET_NO":999,"REV_AT_EPOCH":3952,"BSTAR":0.00047382667,"MEAN_MOTION_DOT":5.566e-5,"MEAN_MOTION_DDOT":0}]
